ONEWEB-0230             
1 48769U 21045C   26158.73363731  .00000225  00000+0  56329-3 0  9997
2 48769  87.8998 261.0872 0002023  96.2316 263.9044 13.15547689243427
ONEWEB-0237             
1 48770U 21045D   26158.72252802  .00000015  00000+0  70951-5 0  9990
2 48770  87.8998 261.0913 0001670  99.5668 260.5651 13.15550987243149
ONEWEB-0235             
1 48771U 21045E   26158.69719292 -.00000084  00000+0 -25826-3 0  9995
2 48771  87.9012 261.0813 0001525 103.0298 257.1003 13.15548649243130
ONEWEB-0242             
1 48772U 21045F   26158.76691613 -.00000105  00000+0 -31203-3 0  9990
2 48772  87.9013 261.0637 0001790  96.5649 263.5685 13.15548287243186
ONEWEB-0241             
1 48773U 21045G   26158.75424325  .00000030  00000+0  46891-4 0  9999
2 48773  87.8999 261.0853 0001664 110.9416 249.1892 13.15547924243099
ONEWEB-0243             
1 48774U 21045H   26158.70986855 -.00000051  00000+0 -16860-3 0  9993
2 48774  87.9000 261.1068 0001601  88.1606 271.9707 13.15547960243112
ONEWEB-0222             
1 48775U 21045J   26158.69322881 -.00000036  00000+0 -12860-3 0  9994
2 48775  87.9011 261.0771 0001717 104.3182 255.8139 13.15548647243150
ONEWEB-0244             
1 48776U 21045K   26158.71937650  .00000138  00000+0  33324-3 0  9993
2 48776  87.9014 261.0660 0001817 100.0749 260.0586 13.15547579243724
ONEWEB-0247             
1 48777U 21045L   26158.71619416  .00000013  00000+0 -74642-6 0  9995
2 48777  87.8997 261.1001 0001187  89.5552 270.5714 13.15546713243163
ONEWEB-0245             
1 48778U 21045M   26158.71144419 -.00000271  00000+0 -75501-3 0  9991
2 48778  87.9015 261.0795 0002100 110.0447 250.0909 13.15550185243138
ONEWEB-0229             
1 48779U 21045N   26158.70669767 -.00000110  00000+0 -32673-3 0  9994
2 48779  87.9010 261.0784 0001840  97.4589 262.6750 13.15548879243160
ONEWEB-0228             
1 48780U 21045P   26158.74009645  .00000143  00000+0  34696-3 0  9994
2 48780  87.9014 261.0635 0001830 101.5306 258.6029 13.15550478243087
ONEWEB-0232             
1 48781U 21045Q   26158.71461696  .00000040  00000+0  72185-4 0  9992
2 48781  87.9010 261.0700 0001925 103.5925 256.5420 13.15549967243400
ONEWEB-0231             
1 48782U 21045R   26158.69243279 -.00000088  00000+0 -26695-3 0  9993
2 48782  87.9003 261.0874 0001696 103.3245 256.8074 13.15547999243099
ONEWEB-0234             
1 48783U 21045S   26158.73033066  .00000168  00000+0  41336-3 0  9996
2 48783  87.9007 261.0619 0002460 117.1484 242.9897 13.15549293243233
ONEWEB-0238             
1 48784U 21045T   26158.73058669  .00001311  00000+0  34467-2 0  9990
2 48784  87.9013 261.0562 0002038 112.9077 247.2269 13.15558448243132
ONEWEB-0240             
1 48785U 21045U   26158.75184648  .00000107  00000+0  24974-3 0  9995
2 48785  87.9015 261.0616 0001717 109.0034 251.1283 13.15546726243167
ONEWEB-0246             
1 48786U 21045V   26158.74631758  .00000088  00000+0  19898-3 0  9991
2 48786  87.9014 261.0674 0001864  98.1555 261.9787 13.15548549243039
ONEWEB-0210             
1 48787U 21045W   26158.72095589  .00000009  00000+0 -98758-5 0  9994
2 48787  87.9010 261.0697 0001357  78.0365 282.0917 13.15550284243076
ONEWEB-0214             
1 48788U 21045X   26158.72967319  .00000203  00000+0  50536-3 0  9999
2 48788  87.9014 261.0647 0001910  89.6499 270.4850 13.15548817243040
ONEWEB-0221             
1 48789U 21045Y   26158.73680458  .00000170  00000+0  41834-3 0  9991
2 48789  87.9011 261.0720 0001728 102.0481 258.0843 13.15547845243132
ONEWEB-0213             
1 48790U 21045Z   26158.72569436  .00000027  00000+0  38015-4 0  9993
2 48790  87.9011 261.0777 0001654  99.6900 260.4417 13.15550144243197
ONEWEB-0212             
1 48791U 21045AA  26158.70274088 -.00000044  00000+0 -15006-3 0  9993
2 48791  87.9010 261.0767 0001996 102.2501 257.8853 13.15549694243184
ONEWEB-0227             
1 48792U 21045AB  26158.70194862 -.00000113  00000+0 -33330-3 0  9992
2 48792  87.9010 261.0779 0001910 102.5119 257.6225 13.15548599243131
ONEWEB-0226             
1 48793U 21045AC  26158.69560411 -.00000079  00000+0 -24510-3 0  9999
2 48793  87.9007 261.0840 0001716  96.0702 264.0624 13.15550017243106
ONEWEB-0224             
1 48794U 21045AD  26158.73520419  .00000207  00000+0  51484-3 0  9990
2 48794  87.8998 261.1102 0001995 127.4050 232.7262 13.15550278243032
ONEWEB-0233             
1 48795U 21045AE  26158.73983446  .00000174  00000+0  42943-3 0  9997
2 48795  87.9001 261.1169 0001659 105.3592 254.7722 13.15548174243054
ONEWEB-0190             
1 48796U 21045AF  26158.72727741  .00000092  00000+0  20964-3 0  9999
2 48796  87.9002 261.0812 0001220 100.0504 260.0764 13.15550514243124
ONEWEB-0236             
1 48797U 21045AG  26158.74472873  .00000146  00000+0  35329-3 0  9996
2 48797  87.9000 261.0877 0002029 103.2016 256.9341 13.15547911243015
ONEWEB-0248             
1 48798U 21045AH  26158.75739066  .00000014  00000+0  38126-5 0  9992
2 48798  87.9011 261.0677 0001530 111.0047 249.1247 13.15547137243179
