OBJECT_NAME,OBJECT_ID,EPOCH,MEAN_MOTION,ECCENTRICITY,INCLINATION,RA_OF_ASC_NODE,ARG_OF_PERICENTER,MEAN_ANOMALY,EPHEMERIS_TYPE,CLASSIFICATION_TYPE,NORAD_CAT_ID,ELEMENT_SET_NO,REV_AT_EPOCH,BSTAR,MEAN_MOTION_DOT,MEAN_MOTION_DDOT
ONEWEB-0230,2021-045C,2026-06-07T17:36:26.263584,13.15547689,.0002023,87.8998,261.0872,96.2316,263.9044,0,U,48769,999,24342,.56329E-3,.225E-5,0
ONEWEB-0237,2021-045D,2026-06-07T17:20:26.420928,13.15550987,.000167,87.8998,261.0913,99.5668,260.5651,0,U,48770,999,24314,.70951E-5,.15E-6,0
ONEWEB-0235,2021-045E,2026-06-07T16:43:57.468288,13.15548649,.0001525,87.9012,261.0813,103.0298,257.1003,0,U,48771,999,24313,-.25826E-3,-.84E-6,0
ONEWEB-0242,2021-045F,2026-06-07T18:24:21.553632,13.15548287,.000179,87.9013,261.0637,96.5649,263.5685,0,U,48772,999,24318,-.31203E-3,-.105E-5,0
ONEWEB-0241,2021-045G,2026-06-07T18:06:06.616800,13.15547924,.0001664,87.8999,261.0853,110.9416,249.1892,0,U,48773,999,24309,.46891E-4,.3E-6,0
ONEWEB-0243,2021-045H,2026-06-07T17:02:12.642720,13.15547960,.0001601,87.9000,261.1068,88.1606,271.9707,0,U,48774,999,24311,-.1686E-3,-.51E-6,0
ONEWEB-0222,2021-045J,2026-06-07T16:38:14.969184,13.15548647,.0001717,87.9011,261.0771,104.3182,255.8139,0,U,48775,999,24315,-.1286E-3,-.36E-6,0
ONEWEB-0244,2021-045K,2026-06-07T17:15:54.129600,13.15547579,.0001817,87.9014,261.0660,100.0749,260.0586,0,U,48776,999,24372,.33324E-3,.138E-5,0
ONEWEB-0247,2021-045L,2026-06-07T17:11:19.175424,13.15546713,.0001187,87.8997,261.1001,89.5552,270.5714,0,U,48777,999,24316,-.74642E-6,.13E-6,0
ONEWEB-0245,2021-045M,2026-06-07T17:04:28.778016,13.15550185,.00021,87.9015,261.0795,110.0447,250.0909,0,U,48778,999,24313,-.75501E-3,-.271E-5,0
ONEWEB-0229,2021-045N,2026-06-07T16:57:38.678688,13.15548879,.000184,87.9010,261.0784,97.4589,262.6750,0,U,48779,999,24316,-.32673E-3,-.11E-5,0
ONEWEB-0228,2021-045P,2026-06-07T17:45:44.333280,13.15550478,.000183,87.9014,261.0635,101.5306,258.6029,0,U,48780,999,24308,.34696E-3,.143E-5,0
ONEWEB-0232,2021-045Q,2026-06-07T17:09:02.905344,13.15549967,.0001925,87.9010,261.0700,103.5925,256.5420,0,U,48781,999,24340,.72185E-4,.4E-6,0
ONEWEB-0231,2021-045R,2026-06-07T16:37:06.193056,13.15547999,.0001696,87.9003,261.0874,103.3245,256.8074,0,U,48782,999,24309,-.26695E-3,-.88E-6,0
ONEWEB-0234,2021-045S,2026-06-07T17:31:40.569024,13.15549293,.000246,87.9007,261.0619,117.1484,242.9897,0,U,48783,999,24323,.41336E-3,.168E-5,0
ONEWEB-0238,2021-045T,2026-06-07T17:32:02.690016,13.15558448,.0002038,87.9013,261.0562,112.9077,247.2269,0,U,48784,999,24313,.34467E-2,.1311E-4,0
ONEWEB-0240,2021-045U,2026-06-07T18:02:39.535872,13.15546726,.0001717,87.9015,261.0616,109.0034,251.1283,0,U,48785,999,24316,.24974E-3,.107E-5,0
ONEWEB-0246,2021-045V,2026-06-07T17:54:41.838912,13.15548549,.0001864,87.9014,261.0674,98.1555,261.9787,0,U,48786,999,24303,.19898E-3,.88E-6,0
ONEWEB-0210,2021-045W,2026-06-07T17:18:10.588896,13.15550284,.0001357,87.9010,261.0697,78.0365,282.0917,0,U,48787,999,24307,-.98758E-5,.9E-7,0
ONEWEB-0214,2021-045X,2026-06-07T17:30:43.763616,13.15548817,.000191,87.9014,261.0647,89.6499,270.4850,0,U,48788,999,24304,.50536E-3,.203E-5,0
ONEWEB-0221,2021-045Y,2026-06-07T17:40:59.915712,13.15547845,.0001728,87.9011,261.0720,102.0481,258.0843,0,U,48789,999,24313,.41834E-3,.17E-5,0
ONEWEB-0213,2021-045Z,2026-06-07T17:24:59.992704,13.15550144,.0001654,87.9011,261.0777,99.6900,260.4417,0,U,48790,999,24319,.38015E-4,.27E-6,0
ONEWEB-0212,2021-045AA,2026-06-07T16:51:56.812032,13.15549694,.0001996,87.9010,261.0767,102.2501,257.8853,0,U,48791,999,24318,-.15006E-3,-.44E-6,0
ONEWEB-0227,2021-045AB,2026-06-07T16:50:48.360768,13.15548599,.000191,87.9010,261.0779,102.5119,257.6225,0,U,48792,999,24313,-.3333E-3,-.113E-5,0
ONEWEB-0226,2021-045AC,2026-06-07T16:41:40.195104,13.15550017,.0001716,87.9007,261.0840,96.0702,264.0624,0,U,48793,999,24310,-.2451E-3,-.79E-6,0
ONEWEB-0224,2021-045AD,2026-06-07T17:38:41.642016,13.15550278,.0001995,87.8998,261.1102,127.4050,232.7262,0,U,48794,999,24303,.51484E-3,.207E-5,0
ONEWEB-0233,2021-045AE,2026-06-07T17:45:21.697344,13.15548174,.0001659,87.9001,261.1169,105.3592,254.7722,0,U,48795,999,24305,.42943E-3,.174E-5,0
ONEWEB-0190,2021-045AF,2026-06-07T17:27:16.768224,13.15550514,.000122,87.9002,261.0812,100.0504,260.0764,0,U,48796,999,24312,.20964E-3,.92E-6,0
ONEWEB-0236,2021-045AG,2026-06-07T17:52:24.562272,13.15547911,.0002029,87.9000,261.0877,103.2016,256.9341,0,U,48797,999,24301,.35329E-3,.146E-5,0
ONEWEB-0248,2021-045AH,2026-06-07T18:10:38.553024,13.15547137,.000153,87.9011,261.0677,111.0047,249.1247,0,U,48798,999,24317,.38126E-5,.14E-6,0
